[{"OBJECT_ID":"2006-023B","OBJECT_NAME":"BLOCK DM-SL R/B","NORAD_CAT_ID":"29237","OBJECT_TYPE":"ROCKET BODY","PERIOD":"667.012","INCLINATION":"0.8927","APOGEE":"35635.738","PERIGEE":"2184.193","ECCENTRICITY":"0.6614088","MEAN_MOTION":"2.15887969","TLE_LINE1":"1 29237U 06023B   16238.62226272 -.00000029 +00000-0 +00000-0 0  9995","TLE_LINE2":"2 29237 000.8927 322.4846 6614088 266.6927 243.8886 02.15887969080306","LAUNCH_DATE":"2006-06-18","LAUNCH_SITE":"SEA LAUNCH","OWNER":"SEA LAUNCH DEMO","ORBIT_TYPE":"Highly Elliptical Orbit","OPERATIONAL_STATUS":"N/A, derelict rocket body","satInfo":{"lng":97.06231949242142,"lat":-0.34088185773616686,"elevation":-8.910616905172182,"azimuth":217.9376805075786,"range":42659.057463994846,"height":35766.821157857245,"velocity":1.77587848914347},"x":338.98276684660686,"y":40.326791461605794,"dx":-0.2183422073784548,"dy":1.7624049162095519,"maxAlt":340.32996965682827,"minAlt":19.07092863127857},{"OBJECT_ID":"2006-033A","OBJECT_NAME":"JCSAT 10","NORAD_CAT_ID":"29272","OBJECT_TYPE":"PAYLOAD","PERIOD":"1436.120","INCLINATION":"0.037","APOGEE":"35795.336","PERIGEE":"35778.765","ECCENTRICITY":"0.0001965","MEAN_MOTION":"1.00270165","TLE_LINE1":"1 29272U 06033A   16238.81438253 -.00000372  00000-0  00000+0 0  9990","TLE_LINE2":"2 29272   0.0370 300.5483 0001965 208.5065 246.6055  1.00270165 36845","LAUNCH_DATE":"2006-08-11","LAUNCH_SITE":"FRENCH GUIANA","OWNER":"JAPAN","ORBIT_TYPE":"Geosynchronous","OPERATIONAL_STATUS":"Operational","satInfo":{"lng":109.41572836002695,"lat":1.8818481396224254,"elevation":-6.725664025537778,"azimuth":205.58427163997303,"range":42462.13846034215,"height":35814.52213196508,"velocity":3.073397756551449},"x":322.4868838329441,"y":112.43123647472846,"dx":-1.0216590205071183,"dy":2.89861805276099,"maxAlt":341.8627030606097,"minAlt":341.7035599307831},{"OBJECT_ID":"2006-033B","OBJECT_NAME":"SYRACUSE 3B","NORAD_CAT_ID":"29273","OBJECT_TYPE":"PAYLOAD","PERIOD":"1436.100","INCLINATION":"0.0102","APOGEE":"35797.886","PERIGEE":"35775.463","ECCENTRICITY":"0.0002659","MEAN_MOTION":"1.00271507","TLE_LINE1":"1 29273U 06033B   16238.88284251 -.00000071 +00000-0 +00000-0 0  9992","TLE_LINE2":"2 29273 000.0102 108.0432 0002659 063.7843 115.3408 01.00271507036799","LAUNCH_DATE":"2006-08-11","LAUNCH_SITE":"FRENCH GUIANA","OWNER":"FRANCE","ORBIT_TYPE":"Geosynchronous","OPERATIONAL_STATUS":"Operational","satInfo":{"lng":46.24363091242992,"lat":-0.6605901076561987,"elevation":-9.212673312611049,"azimuth":268.75636908757,"range":42742.76402423989,"height":35816.084381933404,"velocity":3.073586781837624},"x":246.53777657237973,"y":-239.79100018562008,"dx":2.125672180829987,"dy":2.2200120461683195,"maxAlt":341.88719252902183,"minAlt":341.6718484701177},{"OBJECT_ID":"2006-034A","OBJECT_NAME":"KOREASAT 5","NORAD_CAT_ID":"29349","OBJECT_TYPE":"PAYLOAD","PERIOD":"1436.121","INCLINATION":"0.015","APOGEE":"35790.802","PERIGEE":"35783.372","ECCENTRICITY":"8.81e-05","MEAN_MOTION":"1.00270036","TLE_LINE1":"1 29349U 06034A   16238.76091507 -.00000385  00000-0  00000+0 0  9991","TLE_LINE2":"2 29349   0.0150 121.1137 0000881  92.3279 147.9694  1.00270036 36716","LAUNCH_DATE":"2006-08-22","LAUNCH_SITE":"SEA LAUNCH","OWNER":"SOUTH KOREA","ORBIT_TYPE":"Geosynchronous","OPERATIONAL_STATUS":"Operational","satInfo":{"lng":52.80569925012975,"lat":-0.37408972770035204,"elevation":-8.93592453424185,"azimuth":262.19430074987025,"range":42697.805694079674,"height":35802.32939315782,"velocity":3.074189956951546},"x":271.99034580487466,"y":-209.7607087112104,"dx":1.8584089454079233,"dy":2.4488691437170664,"maxAlt":341.81915982540164,"minAlt":341.7478042370478},{"OBJECT_ID":"2006-043B","OBJECT_NAME":"OPTUS D1","NORAD_CAT_ID":"29495","OBJECT_TYPE":"PAYLOAD","PERIOD":"1436.100","INCLINATION":"0.0405","APOGEE":"35801.168","PERIGEE":"35772.158","ECCENTRICITY":"0.000344","MEAN_MOTION":"1.00271548","TLE_LINE1":"1 29495U 06043B   16238.84658787 -.00000138 +00000-0 +00000-0 0  9998","TLE_LINE2":"2 29495 000.0405 312.2904 0003440 209.9667 277.0270 01.00271548036193","LAUNCH_DATE":"2006-10-13","LAUNCH_SITE":"FRENCH GUIANA","OWNER":"AUSTRALIA","ORBIT_TYPE":"Geosynchronous","OPERATIONAL_STATUS":"Operational","satInfo":{"lng":-83.4656900057413,"lat":-1.2054555679436763,"elevation":-9.74575139971898,"azimuth":38.465690005741266,"range":42791.95789718268,"height":35805.600086874074,"velocity":3.0744661508052022},"x":-343.53834866142705,"y":-41.03683549576562,"dx":0.3498686108825657,"dy":-3.054494077186279,"maxAlt":341.91871191542526,"minAlt":341.64010819831293},{"OBJECT_ID":"2006-051A","OBJECT_NAME":"ARABSAT 4B","NORAD_CAT_ID":"29526","OBJECT_TYPE":"PAYLOAD","PERIOD":"1436.135","INCLINATION":"0.0563","APOGEE":"35793.867","PERIGEE":"35780.838","ECCENTRICITY":"0.0001545","MEAN_MOTION":"1.00269088","TLE_LINE1":"1 29526U 06051A   16239.11160700  .00000116  00000-0  00000+0 0  9990","TLE_LINE2":"2 29526   0.0563 315.3196 0001545 245.6662 199.9749  1.00269088 35970","LAUNCH_DATE":"2006-11-08","LAUNCH_SITE":"TYURATAM MISSILE AND SPACE COMPLEX","OWNER":"ARAB SATELLITE COMMUNICATIONS ORGANIZATION","ORBIT_TYPE":"Geosynchronous","OPERATIONAL_STATUS":"Operational","satInfo":{"lng":60.76934434769858,"lat":0.11635585755068904,"elevation":-8.465642775334237,"azimuth":254.23065565230138,"range":42601.50319046324,"height":35759.280602006,"velocity":3.075734006144112},"x":297.78541454113247,"y":-169.60748276043762,"dx":1.5019628506601737,"dy":2.6840728886876515,"maxAlt":341.84859520606165,"minAlt":341.7234684280453},{"OBJECT_ID":"2006-056A","OBJECT_NAME":"MEASAT 3","NORAD_CAT_ID":"29648","OBJECT_TYPE":"PAYLOAD","PERIOD":"1436.151","INCLINATION":"0.0258","APOGEE":"35803.597","PERIGEE":"35771.728","ECCENTRICITY":"0.0003779","MEAN_MOTION":"1.00267983","TLE_LINE1":"1 29648U 06056A   16238.80744811 -.00000268 +00000-0 +00000-0 0  9996","TLE_LINE2":"2 29648 000.0258 160.1942 0003779 001.2357 195.2008 01.00267983014537","LAUNCH_DATE":"2006-12-11","LAUNCH_SITE":"TYURATAM MISSILE AND SPACE COMPLEX","OWNER":"MALAYSIA","ORBIT_TYPE":"Geosynchronous","OPERATIONAL_STATUS":"Operational","satInfo":{"lng":58.93858370711834,"lat":0.37116407358344955,"elevation":-8.210019470478942,"azimuth":256.06141629288163,"range":42605.98587233513,"height":35792.0757274605,"velocity":3.074232503890891},"x":292.54459482718596,"y":-179.25871545193638,"dx":1.5861705215357667,"dy":2.6334328479363607,"maxAlt":341.942039334552,"minAlt":341.63597860167874},{"OBJECT_ID":"2007-003A","OBJECT_NAME":"BEIDOU 1D","NORAD_CAT_ID":"30323","OBJECT_TYPE":"PAYLOAD","PERIOD":"1452.271","INCLINATION":"1.7254","APOGEE":"36364.537","PERIGEE":"35840.673","ECCENTRICITY":"0.0061659","MEAN_MOTION":"0.99155006","TLE_LINE1":"1 30323U 07003A   16237.42683444 -.00000268 +00000-0 +00000-0 0  9992","TLE_LINE2":"2 30323 001.7254 088.9497 0061659 176.3926 184.0751 00.99155006035175","LAUNCH_DATE":"2007-02-02","LAUNCH_SITE":"Xichang Space Center, China","OWNER":"PEOPLES REPUBLIC OF CHINA","ORBIT_TYPE":"Geosynchronous","OPERATIONAL_STATUS":"Nonoperational","satInfo":{"lng":1.3245285763495456,"lat":0.6351056573311874,"elevation":-7.930799437509094,"azimuth":313.67547142365044,"range":42681.00469964753,"height":35897.23706728519,"velocity":3.0780565343000044},"x":6.063499480736611,"y":-346.56008572320104,"dx":3.077234093483424,"dy":0.07115027934030932,"maxAlt":347.32914616243903,"minAlt":342.2981066015516},{"OBJECT_ID":"2007-009A","OBJECT_NAME":"ANIK F3","NORAD_CAT_ID":"31102","OBJECT_TYPE":"PAYLOAD","PERIOD":"1436.102","INCLINATION":"0.0169","APOGEE":"35793.816","PERIGEE":"35779.581","ECCENTRICITY":"0.0001688","MEAN_MOTION":"1.0027142","TLE_LINE1":"1 31102U 07009A   16239.53750052 -.00000030  00000-0  00000+0 0  9994","TLE_LINE2":"2 31102   0.0169 127.4464 0001688  28.9865 253.5403  1.00271420 34426","LAUNCH_DATE":"2007-04-09","LAUNCH_SITE":"TYURATAM MISSILE AND SPACE COMPLEX","OWNER":"CANADA","ORBIT_TYPE":"Geosynchronous","OPERATIONAL_STATUS":"Operational","satInfo":{"lng":-106.51120104957137,"lat":0.8124328398478093,"elevation":-7.7820945039511304,"azimuth":61.51120104957134,"range":42539.14797302264,"height":35773.46729845721,"velocity":3.075366530119889},"x":-331.29665470778247,"y":95.73473888393445,"dx":-0.8740277294534579,"dy":-2.948551309156427,"maxAlt":341.84810541669344,"minAlt":341.711396560675},{"OBJECT_ID":"2007-016B","OBJECT_NAME":"GALAXY 17","NORAD_CAT_ID":"31307","OBJECT_TYPE":"PAYLOAD","PERIOD":"1436.112","INCLINATION":"0.037","APOGEE":"35800.417","PERIGEE":"35773.389","ECCENTRICITY":"0.0003205","MEAN_MOTION":"1.00270691","TLE_LINE1":"1 31307U 07016B   16239.48495310 -.00000203  00000-0  00000+0 0  9998","TLE_LINE2":"2 31307   0.0370 331.0028 0003205 194.3201 253.3977  1.00270691 34169","LAUNCH_DATE":"2007-05-04","LAUNCH_SITE":"FRENCH GUIANA","OWNER":"UNITED STATES OF AMERICA","ORBIT_TYPE":"Geosynchronous","OPERATIONAL_STATUS":"Operational","satInfo":{"lng":-103.99769411110556,"lat":-0.06982936006645839,"elevation":-8.642452459029894,"azimuth":58.99769411110557,"range":42646.871451915824,"height":35784.52388450863,"velocity":3.075089739827433},"x":-335.3647824712063,"y":81.22106470156046,"dx":-0.743811456466095,"dy":-2.9837763698410336,"maxAlt":341.91149952688505,"minAlt":341.65193036914246}]